[{"OBJECT_NAME":"ONEWEB-0281","OBJECT_ID":"2021-060AJ","EPOCH":"2026-01-10T18:03:49.073184","MEAN_MOTION":13.16595388,"ECCENTRICITY":0.00016063,"INCLINATION":87.9035,"RA_OF_ASC_NODE":260.1178,"ARG_OF_PERICENTER":75.2451,"MEAN_ANOMALY":284.8858,"EPHEMERIS_TYPE":0,"CLASSIFICATION_TYPE":"U","NORAD_CAT_ID":48999,"ELEMENT_SET_NO":999,"REV_AT_EPOCH":21891,"BSTAR":0.00013989174,"MEAN_MOTION_DOT":6.6e-7,"MEAN_MOTION_DDOT":0},{"OBJECT_NAME":"ONEWEB-0282","OBJECT_ID":"2021-060AK","EPOCH":"2026-01-10T22:25:59.673216","MEAN_MOTION":13.16594473,"ECCENTRICITY":0.00013668,"INCLINATION":87.9037,"RA_OF_ASC_NODE":260.0918,"ARG_OF_PERICENTER":72.6549,"MEAN_ANOMALY":287.4732,"EPHEMERIS_TYPE":0,"CLASSIFICATION_TYPE":"U","NORAD_CAT_ID":49000,"ELEMENT_SET_NO":999,"REV_AT_EPOCH":21891,"BSTAR":-0.00055587114,"MEAN_MOTION_DOT":-2.0e-6,"MEAN_MOTION_DDOT":0},{"OBJECT_NAME":"ONEWEB-0283","OBJECT_ID":"2021-060AL","EPOCH":"2026-01-10T16:41:43.931040","MEAN_MOTION":13.16595192,"ECCENTRICITY":0.00014776,"INCLINATION":87.9037,"RA_OF_ASC_NODE":260.1399,"ARG_OF_PERICENTER":69.2691,"MEAN_ANOMALY":290.8598,"EPHEMERIS_TYPE":0,"CLASSIFICATION_TYPE":"U","NORAD_CAT_ID":49001,"ELEMENT_SET_NO":999,"REV_AT_EPOCH":21889,"BSTAR":-7.3660746e-5,"MEAN_MOTION_DOT":-1.5e-7,"MEAN_MOTION_DDOT":0},{"OBJECT_NAME":"ONEWEB-0284","OBJECT_ID":"2021-060AM","EPOCH":"2026-01-10T22:00:55.172736","MEAN_MOTION":13.16593959,"ECCENTRICITY":0.00011834,"INCLINATION":87.9037,"RA_OF_ASC_NODE":260.0858,"ARG_OF_PERICENTER":87.0155,"MEAN_ANOMALY":273.1112,"EPHEMERIS_TYPE":0,"CLASSIFICATION_TYPE":"U","NORAD_CAT_ID":49002,"ELEMENT_SET_NO":999,"REV_AT_EPOCH":21890,"BSTAR":-0.00011206304,"MEAN_MOTION_DOT":-3.0e-7,"MEAN_MOTION_DDOT":0},{"OBJECT_NAME":"ONEWEB-0285","OBJECT_ID":"2021-075A","EPOCH":"2026-01-10T22:26:02.852736","MEAN_MOTION":13.1244093,"ECCENTRICITY":0.00016939,"INCLINATION":87.8926,"RA_OF_ASC_NODE":21.8845,"ARG_OF_PERICENTER":90.1544,"MEAN_ANOMALY":269.9779,"EPHEMERIS_TYPE":0,"CLASSIFICATION_TYPE":"U","NORAD_CAT_ID":49075,"ELEMENT_SET_NO":999,"REV_AT_EPOCH":21458,"BSTAR":0.0010654194,"MEAN_MOTION_DOT":3.96e-6,"MEAN_MOTION_DDOT":0},{"OBJECT_NAME":"ONEWEB-0286","OBJECT_ID":"2021-075B","EPOCH":"2026-01-10T23:51:02.819232","MEAN_MOTION":13.12443975,"ECCENTRICITY":0.00019391,"INCLINATION":87.8921,"RA_OF_ASC_NODE":21.9041,"ARG_OF_PERICENTER":92.5918,"MEAN_ANOMALY":267.5432,"EPHEMERIS_TYPE":0,"CLASSIFICATION_TYPE":"U","NORAD_CAT_ID":49076,"ELEMENT_SET_NO":999,"REV_AT_EPOCH":21394,"BSTAR":0.00014761574,"MEAN_MOTION_DOT":6.6e-7,"MEAN_MOTION_DDOT":0},{"OBJECT_NAME":"ONEWEB-0287","OBJECT_ID":"2021-075C","EPOCH":"2026-01-10T14:22:42.800736","MEAN_MOTION":13.17647698,"ECCENTRICITY":0.00021556,"INCLINATION":87.9094,"RA_OF_ASC_NODE":37.1918,"ARG_OF_PERICENTER":102.4856,"MEAN_ANOMALY":257.6517,"EPHEMERIS_TYPE":0,"CLASSIFICATION_TYPE":"U","NORAD_CAT_ID":49077,"ELEMENT_SET_NO":999,"REV_AT_EPOCH":21287,"BSTAR":0.00015326626,"MEAN_MOTION_DOT":7.2e-7,"MEAN_MOTION_DDOT":0},{"OBJECT_NAME":"ONEWEB-0288","OBJECT_ID":"2021-075D","EPOCH":"2026-01-10T23:17:04.758144","MEAN_MOTION":13.12444302,"ECCENTRICITY":0.00017184,"INCLINATION":87.8924,"RA_OF_ASC_NODE":21.8727,"ARG_OF_PERICENTER":94.4108,"MEAN_ANOMALY":265.7217,"EPHEMERIS_TYPE":0,"CLASSIFICATION_TYPE":"U","NORAD_CAT_ID":49078,"ELEMENT_SET_NO":999,"REV_AT_EPOCH":21456,"BSTAR":-0.0010489146,"MEAN_MOTION_DOT":-3.65e-6,"MEAN_MOTION_DDOT":0},{"OBJECT_NAME":"ONEWEB-0289","OBJECT_ID":"2021-075E","EPOCH":"2026-01-10T18:57:06.483168","MEAN_MOTION":13.17649491,"ECCENTRICITY":0.00014416,"INCLINATION":87.9085,"RA_OF_ASC_NODE":37.1664,"ARG_OF_PERICENTER":102.7929,"MEAN_ANOMALY":257.3364,"EPHEMERIS_TYPE":0,"CLASSIFICATION_TYPE":"U","NORAD_CAT_ID":49079,"ELEMENT_SET_NO":999,"REV_AT_EPOCH":21347,"BSTAR":0.00019676213,"MEAN_MOTION_DOT":8.9e-7,"MEAN_MOTION_DDOT":0},{"OBJECT_NAME":"ONEWEB-0290","OBJECT_ID":"2021-075F","EPOCH":"2026-01-10T23:46:28.171776","MEAN_MOTION":13.17649982,"ECCENTRICITY":0.00011829,"INCLINATION":87.9094,"RA_OF_ASC_NODE":37.0909,"ARG_OF_PERICENTER":96.0605,"MEAN_ANOMALY":264.0662,"EPHEMERIS_TYPE":0,"CLASSIFICATION_TYPE":"U","NORAD_CAT_ID":49080,"ELEMENT_SET_NO":999,"REV_AT_EPOCH":21291,"BSTAR":0.00013388498,"MEAN_MOTION_DOT":6.5e-7,"MEAN_MOTION_DDOT":0},{"OBJECT_NAME":"ONEWEB-0291","OBJECT_ID":"2021-075G","EPOCH":"2026-01-10T23:24:35.928576","MEAN_MOTION":13.17650155,"ECCENTRICITY":0.00018663,"INCLINATION":87.9097,"RA_OF_ASC_NODE":37.1014,"ARG_OF_PERICENTER":106.3323,"MEAN_ANOMALY":253.8013,"EPHEMERIS_TYPE":0,"CLASSIFICATION_TYPE":"U","NORAD_CAT_ID":49081,"ELEMENT_SET_NO":999,"REV_AT_EPOCH":21290,"BSTAR":3.6877809e-5,"MEAN_MOTION_DOT":2.7e-7,"MEAN_MOTION_DDOT":0},{"OBJECT_NAME":"ONEWEB-0293","OBJECT_ID":"2021-075H","EPOCH":"2026-01-11T00:01:02.972640","MEAN_MOTION":13.17650882,"ECCENTRICITY":0.00016587,"INCLINATION":87.9086,"RA_OF_ASC_NODE":37.1136,"ARG_OF_PERICENTER":97.1862,"MEAN_ANOMALY":262.9458,"EPHEMERIS_TYPE":0,"CLASSIFICATION_TYPE":"U","NORAD_CAT_ID":49082,"ELEMENT_SET_NO":999,"REV_AT_EPOCH":21293,"BSTAR":0.00014745855,"MEAN_MOTION_DOT":7.0e-7,"MEAN_MOTION_DDOT":0},{"OBJECT_NAME":"ONEWEB-0294","OBJECT_ID":"2021-075J","EPOCH":"2026-01-10T23:26:50.290944","MEAN_MOTION":13.1244486,"ECCENTRICITY":0.0001442,"INCLINATION":87.8927,"RA_OF_ASC_NODE":21.8734,"ARG_OF_PERICENTER":96.8217,"MEAN_ANOMALY":263.3075,"EPHEMERIS_TYPE":0,"CLASSIFICATION_TYPE":"U","NORAD_CAT_ID":49083,"ELEMENT_SET_NO":999,"REV_AT_EPOCH":21395,"BSTAR":-0.0010514105,"MEAN_MOTION_DOT":-3.66e-6,"MEAN_MOTION_DDOT":0},{"OBJECT_NAME":"ONEWEB-0295","OBJECT_ID":"2021-075K","EPOCH":"2026-01-10T23:59:48.408576","MEAN_MOTION":13.1765134,"ECCENTRICITY":0.00019243,"INCLINATION":87.9086,"RA_OF_ASC_NODE":37.1183,"ARG_OF_PERICENTER":104.3536,"MEAN_ANOMALY":255.781,"EPHEMERIS_TYPE":0,"CLASSIFICATION_TYPE":"U","NORAD_CAT_ID":49084,"ELEMENT_SET_NO":999,"REV_AT_EPOCH":21289,"BSTAR":0.00014943351,"MEAN_MOTION_DOT":7.1e-7,"MEAN_MOTION_DDOT":0},{"OBJECT_NAME":"ONEWEB-0296","OBJECT_ID":"2021-075L","EPOCH":"2026-01-10T22:57:33.888672","MEAN_MOTION":13.12443862,"ECCENTRICITY":0.0001804,"INCLINATION":87.8924,"RA_OF_ASC_NODE":21.8807,"ARG_OF_PERICENTER":102.2173,"MEAN_ANOMALY":257.9157,"EPHEMERIS_TYPE":0,"CLASSIFICATION_TYPE":"U","NORAD_CAT_ID":49085,"ELEMENT_SET_NO":999,"REV_AT_EPOCH":21395,"BSTAR":-3.257589e-5,"MEAN_MOTION_DOT":1.0e-8,"MEAN_MOTION_DDOT":0},{"OBJECT_NAME":"ONEWEB-0297","OBJECT_ID":"2021-075M","EPOCH":"2026-01-10T23:41:28.987584","MEAN_MOTION":13.12444785,"ECCENTRICITY":0.0001814,"INCLINATION":87.8918,"RA_OF_ASC_NODE":21.9044,"ARG_OF_PERICENTER":93.3543,"MEAN_ANOMALY":266.7793,"EPHEMERIS_TYPE":0,"CLASSIFICATION_TYPE":"U","NORAD_CAT_ID":49086,"ELEMENT_SET_NO":999,"REV_AT_EPOCH":21456,"BSTAR":-0.0003884027,"MEAN_MOTION_DOT":-1.27e-6,"MEAN_MOTION_DDOT":0},{"OBJECT_NAME":"ONEWEB-0298","OBJECT_ID":"2021-075N","EPOCH":"2026-01-11T00:06:06.266016","MEAN_MOTION":13.17649763,"ECCENTRICITY":0.00019452,"INCLINATION":87.9086,"RA_OF_ASC_NODE":37.114,"ARG_OF_PERICENTER":92.1603,"MEAN_ANOMALY":267.9752,"EPHEMERIS_TYPE":0,"CLASSIFICATION_TYPE":"U","NORAD_CAT_ID":49087,"ELEMENT_SET_NO":999,"REV_AT_EPOCH":21292,"BSTAR":0.00015047337,"MEAN_MOTION_DOT":7.1e-7,"MEAN_MOTION_DDOT":0}]
