ONEWEB-0281             
1 48999U 21060AJ  26010.75265131  .00000066  00000+0  13989-3 0  9991
2 48999  87.9035 260.1178 0001606  75.2451 284.8858 13.16595388218918
ONEWEB-0282             
1 49000U 21060AK  26010.93471844 -.00000200  00000+0 -55587-3 0  9997
2 49000  87.9037 260.0918 0001366  72.6549 287.4732 13.16594473218911
ONEWEB-0283             
1 49001U 21060AL  26010.69564735 -.00000015  00000+0 -73661-4 0  9991
2 49001  87.9037 260.1399 0001477  69.2691 290.8598 13.16595192218893
ONEWEB-0284             
1 49002U 21060AM  26010.91730524 -.00000030  00000+0 -11206-3 0  9991
2 49002  87.9037 260.0858 0001183  87.0155 273.1112 13.16593959218907
ONEWEB-0285             
1 49075U 21075A   26010.93475524  .00000396  00000+0  10654-2 0  9993
2 49075  87.8926  21.8845 0001693  90.1544 269.9779 13.12440930214583
ONEWEB-0286             
1 49076U 21075B   26010.99378263  .00000066  00000+0  14762-3 0  9991
2 49076  87.8921  21.9041 0001939  92.5918 267.5432 13.12443975213943
ONEWEB-0287             
1 49077U 21075C   26010.59910649  .00000072  00000+0  15327-3 0  9993
2 49077  87.9094  37.1918 0002155 102.4856 257.6517 13.17647698212879
ONEWEB-0288             
1 49078U 21075D   26010.97019396 -.00000365  00000+0 -10489-2 0  9995
2 49078  87.8924  21.8727 0001718  94.4108 265.7217 13.12444302214560
ONEWEB-0289             
1 49079U 21075E   26010.78965837  .00000089  00000+0  19676-3 0  9994
2 49079  87.9085  37.1664 0001441 102.7929 257.3364 13.17649491213477
ONEWEB-0290             
1 49080U 21075F   26010.99060384  .00000065  00000+0  13388-3 0  9990
2 49080  87.9094  37.0909 0001182  96.0605 264.0662 13.17649982212917
ONEWEB-0291             
1 49081U 21075G   26010.97541584  .00000027  00000+0  36878-4 0  9993
2 49081  87.9097  37.1014 0001866 106.3323 253.8013 13.17650155212909
ONEWEB-0293             
1 49082U 21075H   26011.00072885  .00000070  00000+0  14746-3 0  9999
2 49082  87.9086  37.1136 0001658  97.1862 262.9458 13.17650882212931
ONEWEB-0294             
1 49083U 21075J   26010.97697096 -.00000366  00000+0 -10514-2 0  9990
2 49083  87.8927  21.8734 0001442  96.8217 263.3075 13.12444860213955
ONEWEB-0295             
1 49084U 21075K   26010.99986584  .00000071  00000+0  14943-3 0  9998
2 49084  87.9086  37.1183 0001924 104.3536 255.7810 13.17651340212897
ONEWEB-0296             
1 49085U 21075L   26010.95664223  .00000001  00000+0 -32576-4 0  9995
2 49085  87.8924  21.8807 0001804 102.2173 257.9157 13.12443862213951
ONEWEB-0297             
1 49086U 21075M   26010.98714106 -.00000127  00000+0 -38840-3 0  9994
2 49086  87.8918  21.9044 0001814  93.3543 266.7793 13.12444785214568
ONEWEB-0298             
1 49087U 21075N   26011.00423919  .00000071  00000+0  15047-3 0  9998
2 49087  87.9086  37.1140 0001945  92.1603 267.9752 13.17649763212925
